MALLIGYONG-1            
1 58400U 23179A   24221.86331429  .00010282  00000+0  45503-3 0  9998
2 58400  97.3955 107.8203 0002688  57.2202 302.9293 15.21851950 39737
